NORAD_CAT_ID,OBJECT_NAME,OBJECT_TYPE,EPOCH,MEAN_MOTION,ECCENTRICITY,INCLINATION,RA_OF_ASC_NODE,ARG_OF_PERICENTER,MEAN_ANOMALY,BSTAR,MEAN_MOTION_DOT,MEAN_MOTION_DDOT,TLE_LINE0,TLE_LINE1,TLE_LINE2,SEMIMAJOR_AXIS,PERIOD,APOGEE,PERIGEE,DECAYED
55410.0,STARLINK-5633,PAYLOAD,2023-05-04 14:00:01,15.48538302,0.0003473,69.9998,189.3644,275.9907,73.9504,-0.017954,-0.00873832,0.0,0 STARLINK-5633,1 55410U 23014V   23124.58335648 -.00873832  00000-0 -17954-1 0  9999,2 55410  69.9998 189.3644 0003473 275.9907  73.9504 15.48538302 15696,6799.138,92.991,423.365,418.642,0.0
55410.0,STARLINK-5633,PAYLOAD,2023-05-04 21:48:36,15.49368056,0.0002138,69.9968,188.4824,297.3944,62.7023,-0.0035812,-0.00192405,0.0,0 STARLINK-5633,1 55410U 23014V   23124.90875728 -.00192405  00000-0 -35812-2 0  9997,2 55410  69.9968 188.4824 0002138 297.3944  62.7023 15.49368056 15756,6796.711,92.941,420.029,417.122,0.0
55410.0,STARLINK-5633,PAYLOAD,2023-05-05 06:00:00,15.47284186,0.0003304,69.9997,187.5507,269.0039,194.7081,-0.020828,-0.00974952,0.0,0 STARLINK-5633,1 55410U 23014V   23125.25001157 -.00974952  00000-0 -20828-1 0  9998,2 55410  69.9997 187.5507 0003304 269.0039 194.7081 15.47284186 15808,6802.812,93.066,426.924,422.429,0.0
55410.0,STARLINK-5633,PAYLOAD,2023-05-05 13:19:41,15.48298679,0.0003973,69.9971,186.7254,268.6055,91.4674,-0.0053124,-0.00272204,0.0,0 STARLINK-5633,1 55410U 23014V   23125.55534609 -.00272204  00000-0 -53124-2 0  9991,2 55410  69.9971 186.7254 0003973 268.6055  91.4674 15.48298679 15854,6799.84,93.005,424.406,419.003,0.0
55410.0,STARLINK-5633,PAYLOAD,2023-05-05 21:05:20,15.47779963,0.0003431,69.9959,185.8497,276.3823,83.6971,-0.005265,-0.0026515,0.0,0 STARLINK-5633,1 55410U 23014V   23125.87871240 -.00265150  00000-0 -52650-2 0  9996,2 55410  69.9959 185.8497 0003431 276.3823  83.6971 15.47779963 15905,6801.359,93.036,425.557,420.89,0.0
55410.0,STARLINK-5633,PAYLOAD,2023-05-05 22:00:00,15.45911796,0.0003106,69.9992,185.7407,268.2334,306.2176,-0.019194,-0.00854293,0.0,0 STARLINK-5633,1 55410U 23014V   23125.91667824 -.00854293  00000-0 -19194-1 0  9999,2 55410  69.9992 185.7407 0003106 268.2334 306.2176 15.45911796 15909,6806.837,93.149,430.816,426.588,0.0
55410.0,STARLINK-5633,PAYLOAD,2023-05-06 04:51:28,15.46615242,0.0008894,69.9966,184.9721,227.4044,132.639,-0.0028795,-0.00141764,0.0,0 STARLINK-5633,1 55410U 23014V   23126.20240881 -.00141764  00000-0 -28795-2 0  9992,2 55410  69.9966 184.9721 0008894 227.4044 132.6390 15.46615242 15956,6804.773,93.107,432.69,420.586,0.0
55410.0,STARLINK-5633,PAYLOAD,2023-05-06 14:10:34,15.46424685,0.0003609,69.9969,183.9173,277.6591,82.4183,-0.0053065,-0.00255324,0.0,0 STARLINK-5633,1 55410U 23014V   23126.59067173 -.00255324  00000-0 -53065-2 0  9991,2 55410  69.9969 183.9173 0003609 277.6591  82.4183 15.46424685 16011,6805.332,93.118,429.653,424.741,0.0
55410.0,STARLINK-5633,PAYLOAD,2023-05-07 06:00:00,15.43364895,0.0003296,69.9988,182.1317,270.711,155.7715,-0.023661,-0.00968694,0.0,0 STARLINK-5633,1 55410U 23014V   23127.25001157 -.00968694  00000-0 -23661-1 0  9994,2 55410  69.9988 182.1317 0003296 270.7110 155.7715 15.43364895 16115,6814.324,93.303,438.435,433.943,0.0
55410.0,STARLINK-5633,PAYLOAD,2023-05-07 14:00:01,15.42669896,0.000321,69.9989,181.2325,277.7139,199.8324,-0.022071,-0.00889208,0.0,0 STARLINK-5633,1 55410U 23014V   23127.58334491 -.00889208  00000-0 -22071-1 0  9997,2 55410  69.9989 181.2325 0003210 277.7139 199.8324 15.42669896  1307,6816.37,93.345,440.423,436.047,0.0
55410.0,STARLINK-5633,PAYLOAD,2023-05-07 22:00:00,15.41995741,0.0003156,69.9983,180.3321,270.8033,257.0257,-0.021694,-0.00857006,0.0,0 STARLINK-5633,1 55410U 23014V   23127.91667824 -.00857006  00000-0 -21694-1 0  9994,2 55410  69.9983 180.3321 0003156 270.8033 257.0257 15.41995741 16211,6818.357,93.385,442.374,438.07,0.0
55410.0,STARLINK-5633,PAYLOAD,2023-05-08 14:00:01,15.4071599,0.0003225,69.9984,178.5363,273.983,352.0415,-0.023731,-0.00895094,0.0,0 STARLINK-5633,1 55410U 23014V   23128.58334491 -.00895094  00000-0 -23731-1 0  9992,2 55410  69.9984 178.5363 0003225 273.9830 352.0415 15.40715990 16311,6822.132,93.463,446.197,441.797,0.0
55410.0,STARLINK-5633,PAYLOAD,2023-05-08 20:39:12,15.4169325,0.0002542,69.9974,177.7951,320.8509,39.2488,-0.004484,-0.00185453,0.0,0 STARLINK-5633,1 55410U 23014V   23128.86056593 -.00185453  00000-0 -44840-2 0  9993,2 55410  69.9974 177.7951 0002542 320.8509  39.2488 15.41693250 16364,6819.249,93.404,442.847,439.38,0.0
55410.0,STARLINK-5633,PAYLOAD,2023-05-09 12:15:00,15.40552499,0.0003264,69.9963,176.05,263.6176,96.4633,-0.0069777,-0.00274665,0.0,0 STARLINK-5633,1 55410U 23014V   23129.51042778 -.00274665  00000-0 -69777-2 0  9996,2 55410  69.9963 176.0500 0003264 263.6176  96.4633 15.40552499 16466,6822.615,93.473,446.707,442.253,0.0
55410.0,STARLINK-5633,PAYLOAD,2023-05-10 14:00:01,15.36805981,0.0003155,69.9983,173.1701,275.8099,266.0428,-0.027111,-0.00899113,0.0,0 STARLINK-5633,1 55410U 23014V   23130.58334491 -.00899113  00000-0 -27111-1 0  9997,2 55410  69.9983 173.1701 0003155 275.8099 266.0428 15.36805981  1303,6833.698,93.701,457.72,453.407,0.0
55410.0,STARLINK-5633,PAYLOAD,2023-05-10 22:00:00,15.36121898,0.000321,69.9985,172.2789,269.3252,315.7713,-0.026037,-0.00848685,0.0,0 STARLINK-5633,1 55410U 23014V   23130.91667824 -.00848685  00000-0 -26037-1 0  9997,2 55410  69.9985 172.2789 0003210 269.3252 315.7713 15.36121898  1309,6835.727,93.743,459.786,455.398,0.0
55410.0,STARLINK-5633,PAYLOAD,2023-05-11 06:00:00,15.35523835,0.0003352,69.9987,171.3888,269.325,358.2103,-0.029947,-0.00948503,0.0,0 STARLINK-5633,1 55410U 23014V   23131.25001157 -.00948503  00000-0 -29947-1 0  9999,2 55410  69.9987 171.3888 0003352 269.3250 358.2103 15.35523835 16729,6837.502,93.779,461.659,457.075,0.0
55410.0,STARLINK-5633,PAYLOAD,2023-05-11 14:00:01,15.34857655,0.000344,69.9984,170.4992,273.1006,36.1041,-0.029464,-0.00916326,0.0,0 STARLINK-5633,1 55410U 23014V   23131.58334491 -.00916326  00000-0 -29464-1 0  9997,2 55410  69.9984 170.4992 0003440 273.1006  36.1041 15.34857655  1302,6839.48,93.82,463.698,458.993,0.0
55410.0,STARLINK-5633,PAYLOAD,2023-05-11 22:00:00,15.34160716,0.0003455,69.9987,169.6106,267.0355,83.0697,-0.027459,-0.00841201,0.0,0 STARLINK-5633,1 55410U 23014V   23131.91667824 -.00841201  00000-0 -27459-1 0  9994,2 55410  69.9987 169.6106 0003455 267.0355  83.0697 15.34160716  1300,6841.552,93.862,465.78,461.053,0.0
55410.0,STARLINK-5633,PAYLOAD,2023-05-12 06:00:00,15.33567619,0.0003533,69.9992,168.7229,269.7891,120.4082,-0.031969,-0.00951051,0.0,0 STARLINK-5633,1 55410U 23014V   23132.25001157 -.00951051  00000-0 -31969-1 0  9999,2 55410  69.9992 168.7229 0003533 269.7891 120.4082 15.33567619 16888,6843.315,93.899,467.598,462.763,0.0
55410.0,STARLINK-5633,PAYLOAD,2023-05-12 12:00:00,15.33039513,0.0003516,69.999,168.0576,273.8884,55.8812,-0.029696,-0.00875126,0.0,0 STARLINK-5633,1 55410U 23014V   23132.50001157 -.00875126  00000-0 -29696-1 0  9999,2 55410  69.9990 168.0576 0003516 273.8884  55.8812 15.33039513  1303,6844.887,93.931,469.159,464.345,0.0
55410.0,STARLINK-5633,PAYLOAD,2023-05-12 22:00:00,15.322077,0.0003428,69.9989,166.95,270.8829,197.1875,-0.029408,-0.00846507,0.0,0 STARLINK-5633,1 55410U 23014V   23132.91667824 -.00846507  00000-0 -29408-1 0  9995,2 55410  69.9989 166.9500 0003428 270.8829 197.1875 15.32207700 16986,6847.364,93.982,471.576,466.882,0.0
55410.0,STARLINK-5633,PAYLOAD,2023-05-13 06:00:00,15.31605633,0.0003453,69.9993,166.0648,271.5231,234.2958,-0.033739,-0.009441,0.0,0 STARLINK-5633,1 55410U 23014V   23133.25001157 -.00944100  00000-0 -33739-1 0  9994,2 55410  69.9993 166.0648 0003453 271.5231 234.2958 15.31605633 17036,6849.158,94.019,473.388,468.658,0.0
55410.0,STARLINK-5633,PAYLOAD,2023-05-13 14:00:01,15.30937166,0.0003419,69.9989,165.1805,274.6988,268.0937,-0.032957,-0.00906424,0.0,0 STARLINK-5633,1 55410U 23014V   23133.58334491 -.00906424  00000-0 -32957-1 0  9998,2 55410  69.9989 165.1805 0003419 274.6988 268.0937 15.30937166  1304,6851.152,94.06,475.359,470.674,0.0
55410.0,STARLINK-5633,PAYLOAD,2023-05-13 22:00:00,15.30256053,0.0003366,69.9989,164.2971,267.3155,311.679,-0.031551,-0.00853853,0.0,0 STARLINK-5633,1 55410U 23014V   23133.91667824 -.00853853  00000-0 -31551-1 0  9990,2 55410  69.9989 164.2971 0003366 267.3155 311.6790 15.30256053 17133,6853.185,94.102,477.356,472.743,0.0
55410.0,STARLINK-5633,PAYLOAD,2023-05-14 06:00:00,15.29643937,0.0003431,69.9992,163.4145,268.5386,345.8613,-0.03554,-0.00936254,0.0,0 STARLINK-5633,1 55410U 23014V   23134.25001157 -.00936254  00000-0 -35540-1 0  9998,2 55410  69.9992 163.4145 0003431 268.5386 345.8613 15.29643937 17180,6855.013,94.14,479.23,474.526,0.0
55410.0,STARLINK-5633,PAYLOAD,2023-05-14 14:00:01,15.28992322,0.0003467,69.999,162.5339,272.3834,16.6379,-0.035743,-0.00923948,0.0,0 STARLINK-5633,1 55410U 23014V   23134.58334491 -.00923948  00000-0 -35743-1 0  9995,2 55410  69.9990 162.5339 0003467 272.3834  16.6379 15.28992322  1306,6856.96,94.18,481.203,476.448,0.0
55410.0,STARLINK-5633,PAYLOAD,2023-05-14 22:00:00,15.28297921,0.000348,69.999,161.6532,266.3187,56.562,-0.03346,-0.00852537,0.0,0 STARLINK-5633,1 55410U 23014V   23134.91667824 -.00852537  00000-0 -33460-1 0  9990,2 55410  69.9990 161.6532 0003480 266.3187  56.5620 15.28297921 17289,6859.037,94.222,483.289,478.515,0.0
55410.0,STARLINK-5633,PAYLOAD,2023-05-15 14:00:01,15.2704251,0.0003506,69.9984,159.8932,274.3058,113.9046,-0.038364,-0.0094518,0.0,0 STARLINK-5633,1 55410U 23014V   23135.58334491 -.00945180  00000-0 -38364-1 0  9990,2 55410  69.9984 159.8932 0003506 274.3058 113.9046 15.27042510 17393,6862.796,94.3,487.067,482.255,0.0
55410.0,STARLINK-5633,PAYLOAD,2023-05-15 22:00:00,15.26339341,0.000341,69.9984,159.0151,268.0383,151.6882,-0.035356,-0.0084889,0.0,0 STARLINK-5633,1 55410U 23014V   23135.91667824 -.00848890  00000-0 -35356-1 0  9994,2 55410  69.9984 159.0151 0003410 268.0383 151.6882 15.26339341  1304,6864.904,94.343,489.11,484.428,0.0
